ADRAS-J                 
1 58992U 24034A   24111.18247623  .00037384  00000+0  34926-2 0  9998
2 58992  98.2055  81.6216 0042485 238.7599 213.0558 14.93345074  9209
